{
  "type": "FeatureCollection",
  "features": [
    {
      "type": "Feature",
      "properties": {
        "norad_id": 66865,
        "name": "STARLINK-36117",
        "group": "last-30-days",
        "lat": -37.085397174556846,
        "lon": 66.78811664592628,
        "alt_km": 300.8662158418174,
        "timestamp": "2025-12-12T22:42:11.308067+00:00",
        "meta_object_name": "STARLINK-36117",
        "meta_object_id": "2025-281T",
        "meta_epoch": "2025-12-12T06:00:00.999648",
        "meta_mean_motion": 15.92803262,
        "meta_eccentricity": 0.00018235,
        "meta_inclination": 43.0017,
        "meta_ra_of_asc_node": 125.3261,
        "meta_arg_of_pericenter": 264.3279,
        "meta_mean_anomaly": 0.0363,
        "meta_ephemeris_type": 0,
        "meta_classification_type": "U",
        "meta_norad_cat_id": 66865,
        "meta_element_set_no": 999,
        "meta_rev_at_epoch": 132,
        "meta_bstar": -0.0035007586,
        "meta_mean_motion_dot": -0.01254472,
        "meta_mean_motion_ddot": 0.00046091288,
        "tle_line1": "1 66865U 25281T   25346.25001157 -.01254472  46091-3 -35008-2 0  9998",
        "tle_line2": "2 66865  43.0017 125.3261 0001823 264.3279   0.0363 15.92803262  1321"
      },
      "geometry": {
        "type": "Point",
        "coordinates": [
          66.78811664592628,
          -37.085397174556846
        ]
      }
    },
    {
      "type": "Feature",
      "properties": {
        "norad_id": 66866,
        "name": "STARLINK-36126",
        "group": "last-30-days",
        "lat": -36.12028430031957,
        "lon": 69.44506992034901,
        "alt_km": 300.81224971262327,
        "timestamp": "2025-12-12T22:42:11.308077+00:00",
        "meta_object_name": "STARLINK-36126",
        "meta_object_id": "2025-281U",
        "meta_epoch": "2025-12-12T06:00:00.999648",
        "meta_mean_motion": 15.92867194,
        "meta_eccentricity": 0.00017104,
        "meta_inclination": 43.0016,
        "meta_ra_of_asc_node": 125.3205,
        "meta_arg_of_pericenter": 266.8558,
        "meta_mean_anomaly": 359.7522,
        "meta_ephemeris_type": 0,
        "meta_classification_type": "U",
        "meta_norad_cat_id": 66866,
        "meta_element_set_no": 999,
        "meta_rev_at_epoch": 135,
        "meta_bstar": -0.0035817829,
        "meta_mean_motion_dot": -0.0128744,
        "meta_mean_motion_ddot": 0.00048361958,
        "tle_line1": "1 66866U 25281U   25346.25001157 -.01287440  48362-3 -35818-2 0  9992",
        "tle_line2": "2 66866  43.0016 125.3205 0001710 266.8558 359.7522 15.92867194  1359"
      },
      "geometry": {
        "type": "Point",
        "coordinates": [
          69.44506992034901,
          -36.12028430031957
        ]
      }
    },
    {
      "type": "Feature",
      "properties": {
        "norad_id": 66867,
        "name": "STARLINK-36101",
        "group": "last-30-days",
        "lat": -34.756186712582114,
        "lon": 72.85738805859648,
        "alt_km": 300.8126328453218,
        "timestamp": "2025-12-12T22:42:11.308087+00:00",
        "meta_object_name": "STARLINK-36101",
        "meta_object_id": "2025-281V",
        "meta_epoch": "2025-12-12T06:00:00.999648",
        "meta_mean_motion": 15.92956207,
        "meta_eccentricity": 0.00016002,
        "meta_inclination": 43.0018,
        "meta_ra_of_asc_node": 125.3127,
        "meta_arg_of_pericenter": 268.0562,
        "meta_mean_anomaly": 1.5498,
        "meta_ephemeris_type": 0,
        "meta_classification_type": "U",
        "meta_norad_cat_id": 66867,
        "meta_element_set_no": 999,
        "meta_rev_at_epoch": 130,
        "meta_bstar": -0.0037584535,
        "meta_mean_motion_dot": -0.01356467,
        "meta_mean_motion_ddot": 0.00053260965,
        "tle_line1": "1 66867U 25281V   25346.25001157 -.01356467  53261-3 -37585-2 0  9996",
        "tle_line2": "2 66867  43.0018 125.3127 0001600 268.0562   1.5498 15.92956207  1305"
      },
      "geometry": {
        "type": "Point",
        "coordinates": [
          72.85738805859648,
          -34.756186712582114
        ]
      }
    },
    {
      "type": "Feature",
      "properties": {
        "norad_id": 66868,
        "name": "STARLINK-36108",
        "group": "last-30-days",
        "lat": -33.195061447123514,
        "lon": 76.37935403919727,
        "alt_km": 300.7096194258338,
        "timestamp": "2025-12-12T22:42:11.308100+00:00",
        "meta_object_name": "STARLINK-36108",
        "meta_object_id": "2025-281W",
        "meta_epoch": "2025-12-12T06:00:00.999648",
        "meta_mean_motion": 15.93039409,
        "meta_eccentricity": 0.00017618,
        "meta_inclination": 43.0016,
        "meta_ra_of_asc_node": 125.3044,
        "meta_arg_of_pericenter": 267.5017,
        "meta_mean_anomaly": 5.3413,
        "meta_ephemeris_type": 0,
        "meta_classification_type": "U",
        "meta_norad_cat_id": 66868,
        "meta_element_set_no": 999,
        "meta_rev_at_epoch": 130,
        "meta_bstar": -0.0039548408,
        "meta_mean_motion_dot": -0.01432739,
        "meta_mean_motion_ddot": 0.00058925455,
        "tle_line1": "1 66868U 25281W   25346.25001157 -.01432739  58925-3 -39548-2 0  9997",
        "tle_line2": "2 66868  43.0016 125.3044 0001761 267.5017   5.3413 15.93039409  1305"
      },
      "geometry": {
        "type": "Point",
        "coordinates": [
          76.37935403919727,
          -33.195061447123514
        ]
      }
    },
    {
      "type": "Feature",
      "properties": {
        "norad_id": 66869,
        "name": "STARLINK-36092",
        "group": "last-30-days",
        "lat": -31.903583060857187,
        "lon": 79.05102979663835,
        "alt_km": 300.6079206151371,
        "timestamp": "2025-12-12T22:42:11.308110+00:00",
        "meta_object_name": "STARLINK-36092",
        "meta_object_id": "2025-281X",
        "meta_epoch": "2025-12-12T06:00:00.999648",
        "meta_mean_motion": 15.93093585,
        "meta_eccentricity": 0.00019426,
        "meta_inclination": 43.0014,
        "meta_ra_of_asc_node": 125.298,
        "meta_arg_of_pericenter": 264.5263,
        "meta_mean_anomaly": 10.8412,
        "meta_ephemeris_type": 0,
        "meta_classification_type": "U",
        "meta_norad_cat_id": 66869,
        "meta_element_set_no": 999,
        "meta_rev_at_epoch": 135,
        "meta_bstar": -0.0040447717,
        "meta_mean_motion_dot": -0.01469116,
        "meta_mean_motion_ddot": 0.00061731804,
        "tle_line1": "1 66869U 25281X   25346.25001157 -.01469116  61732-3 -40448-2 0  9998",
        "tle_line2": "2 66869  43.0014 125.2980 0001942 264.5263  10.8412 15.93093585  1353"
      },
      "geometry": {
        "type": "Point",
        "coordinates": [
          79.05102979663835,
          -31.903583060857187
        ]
      }
    },
    {
      "type": "Feature",
      "properties": {
        "norad_id": 66870,
        "name": "STARLINK-36114",
        "group": "last-30-days",
        "lat": -21.816347182408244,
        "lon": 95.48971528412481,
        "alt_km": 278.8921843143544,
        "timestamp": "2025-12-12T22:42:11.308122+00:00",
        "meta_object_name": "STARLINK-36114",
        "meta_object_id": "2025-281Y",
        "meta_epoch": "2025-12-11T18:20:53.550816",
        "meta_mean_motion": 15.97988777,
        "meta_eccentricity": 0.00014582,
        "meta_inclination": 43.0018,
        "meta_ra_of_asc_node": 128.3499,
        "meta_arg_of_pericenter": 296.4639,
        "meta_mean_anomaly": 63.6089,
        "meta_ephemeris_type": 0,
        "meta_classification_type": "U",
        "meta_norad_cat_id": 66870,
        "meta_element_set_no": 999,
        "meta_rev_at_epoch": 263,
        "meta_bstar": 0.0007612137,
        "meta_mean_motion_dot": 0.00359718,
        "meta_mean_motion_ddot": 6.0966375e-05,
        "tle_line1": "1 66870U 25281Y   25345.76450869  .00359718  60966-4  76121-3 0  9993",
        "tle_line2": "2 66870  43.0018 128.3499 0001458 296.4639  63.6089 15.97988777  2639"
      },
      "geometry": {
        "type": "Point",
        "coordinates": [
          95.48971528412481,
          -21.816347182408244
        ]
      }
    },
    {
      "type": "Feature",
      "properties": {
        "norad_id": 66871,
        "name": "STARLINK-36095",
        "group": "last-30-days",
        "lat": -28.269848217340925,
        "lon": 85.70389863154725,
        "alt_km": 300.5228255317452,
        "timestamp": "2025-12-12T22:42:11.308132+00:00",
        "meta_object_name": "STARLINK-36095",
        "meta_object_id": "2025-281Z",
        "meta_epoch": "2025-12-12T06:00:00.999648",
        "meta_mean_motion": 15.93183144,
        "meta_eccentricity": 0.00016434,
        "meta_inclination": 43.0013,
        "meta_ra_of_asc_node": 125.2806,
        "meta_arg_of_pericenter": 265.2302,
        "meta_mean_anomaly": 16.802,
        "meta_ephemeris_type": 0,
        "meta_classification_type": "U",
        "meta_norad_cat_id": 66871,
        "meta_element_set_no": 999,
        "meta_rev_at_epoch": 135,
        "meta_bstar": -0.0041323034,
        "meta_mean_motion_dot": -0.01507462,
        "meta_mean_motion_ddot": 0.00064778959,
        "tle_line1": "1 66871U 25281Z   25346.25001157 -.01507462  64779-3 -41323-2 0  9995",
        "tle_line2": "2 66871  43.0013 125.2806 0001643 265.2302  16.8020 15.93183144  1354"
      },
      "geometry": {
        "type": "Point",
        "coordinates": [
          85.70389863154725,
          -28.269848217340925
        ]
      }
    }
  ]
}